0 THORAD AGENA D DEB
1 13518U 70025NR  13282.38650487  .00001116  00000-0  11826-2 0  4612
2 13518 100.0550 076.2261 0004649 245.4048 145.1405 13.76879081611171
0 THORAD AGENA D DEB
1 13518U 70025NR  13283.40318488  .00001104  00000-0  11702-2 0  4629
2 13518 100.0549 077.3000 0004713 243.7801 143.5982 13.76881633611316
0 THORAD AGENA D DEB
1 13518U 70025NR  13285.43674108  .00001013  00000-0  10786-2 0  4639
2 13518 100.0551 079.4480 0004809 239.9466 142.0973 13.76885963611598
0 THORAD AGENA D DEB
1 13518U 70025NR  13286.98320164  .00001187  00000-0  12549-2 0  4642
2 13518 100.0553 081.0815 0004869 237.0692 246.4924 13.76889361611802
0 THORAD AGENA D DEB
1 13518U 70025NR  13288.42478056  .00001407  00000-0  14779-2 0  4650
2 13518 100.0554 082.6042 0004914 234.5164 190.9721 13.76893923612009
0 THORAD AGENA D DEB
1 13518U 70025NR  13290.37968822  .00001318  00000-0  13870-2 0  4665
2 13518 100.0556 084.6692 0004970 231.0076 159.6038 13.76900177612272
0 THORAD AGENA D DEB
1 13518U 70025NR  13291.40191620  .00001325  00000-0  13947-2 0  4678
2 13518 100.0558 085.7490 0004967 228.1234 186.8897 13.76902805612412
0 THORAD AGENA D DEB
1 13518U 70025NR  13292.41927479  .00001376  00000-0  14455-2 0  4681
2 13518 100.0559 086.8238 0004979 225.8832 189.4162 13.76905634612558
0 THORAD AGENA D DEB
1 13518U 70025NR  13293.43866891  .00001478  00000-0  15495-2 0  4693
2 13518 100.0560 087.9010 0004999 223.6526 202.0288 13.76908943612690
0 THORAD AGENA D DEB
1 13518U 70025NR  13294.97504517  .00001569  00000-0  16410-2 0  4708
2 13518 100.0558 089.5240 0005028 220.6116 256.7579 13.76913200612901
0 THORAD AGENA D DEB
1 13518U 70025NR  13295.99284810  .00001598  00000-0  16711-2 0  4719
2 13518 100.0557 090.5994 0005052 218.6044 261.2914 13.76917184613047
